[{"OBJECT_NAME":"STARLINK-5103","OBJECT_ID":"2022-125V","EPOCH":"2025-10-12T00:52:36.069312","MEAN_MOTION":15.08840367,"ECCENTRICITY":0.00013367,"INCLINATION":53.2144,"RA_OF_ASC_NODE":151.2887,"ARG_OF_PERICENTER":81.8636,"MEAN_ANOMALY":278.2508,"EPHEMERIS_TYPE":0,"CLASSIFICATION_TYPE":"U","NORAD_CAT_ID":53983,"ELEMENT_SET_NO":999,"REV_AT_EPOCH":16716,"BSTAR":-1.1251682e-5,"MEAN_MOTION_DOT":-4.67e-6,"MEAN_MOTION_DDOT":0},{"OBJECT_NAME":"STARLINK-5142","OBJECT_ID":"2022-125W","EPOCH":"2025-10-11T22:28:15.136320","MEAN_MOTION":15.08842711,"ECCENTRICITY":0.00016961,"INCLINATION":53.2148,"RA_OF_ASC_NODE":162.0555,"ARG_OF_PERICENTER":90.1653,"MEAN_ANOMALY":269.9533,"EPHEMERIS_TYPE":0,"CLASSIFICATION_TYPE":"U","NORAD_CAT_ID":53984,"ELEMENT_SET_NO":999,"REV_AT_EPOCH":16700,"BSTAR":7.4780542e-5,"MEAN_MOTION_DOT":9.02e-6,"MEAN_MOTION_DDOT":0},{"OBJECT_NAME":"STARLINK-5147","OBJECT_ID":"2022-125X","EPOCH":"2025-10-12T01:49:37.911072","MEAN_MOTION":15.08844991,"ECCENTRICITY":0.00011856,"INCLINATION":53.2159,"RA_OF_ASC_NODE":161.5054,"ARG_OF_PERICENTER":88.2529,"MEAN_ANOMALY":271.8598,"EPHEMERIS_TYPE":0,"CLASSIFICATION_TYPE":"U","NORAD_CAT_ID":53985,"ELEMENT_SET_NO":999,"REV_AT_EPOCH":16702,"BSTAR":3.9682977e-5,"MEAN_MOTION_DOT":3.44e-6,"MEAN_MOTION_DDOT":0},{"OBJECT_NAME":"STARLINK-5119","OBJECT_ID":"2022-125Y","EPOCH":"2025-10-12T00:31:22.497888","MEAN_MOTION":15.08841937,"ECCENTRICITY":0.00014209,"INCLINATION":53.2165,"RA_OF_ASC_NODE":151.199,"ARG_OF_PERICENTER":86.1688,"MEAN_ANOMALY":273.9466,"EPHEMERIS_TYPE":0,"CLASSIFICATION_TYPE":"U","NORAD_CAT_ID":53986,"ELEMENT_SET_NO":999,"REV_AT_EPOCH":16715,"BSTAR":4.3140504e-5,"MEAN_MOTION_DOT":3.99e-6,"MEAN_MOTION_DDOT":0},{"OBJECT_NAME":"STARLINK-5113","OBJECT_ID":"2022-125AA","EPOCH":"2025-10-11T16:01:24.416544","MEAN_MOTION":15.08839114,"ECCENTRICITY":0.00013646,"INCLINATION":53.2171,"RA_OF_ASC_NODE":163.2229,"ARG_OF_PERICENTER":89.5083,"MEAN_ANOMALY":270.6065,"EPHEMERIS_TYPE":0,"CLASSIFICATION_TYPE":"U","NORAD_CAT_ID":53988,"ELEMENT_SET_NO":999,"REV_AT_EPOCH":16695,"BSTAR":2.3359374e-5,"MEAN_MOTION_DOT":8.4e-7,"MEAN_MOTION_DDOT":0},{"OBJECT_NAME":"STARLINK-5118","OBJECT_ID":"2022-125AD","EPOCH":"2025-10-12T01:13:48.974592","MEAN_MOTION":15.08836269,"ECCENTRICITY":0.00015807,"INCLINATION":53.216,"RA_OF_ASC_NODE":151.3154,"ARG_OF_PERICENTER":88.1175,"MEAN_ANOMALY":271.9999,"EPHEMERIS_TYPE":0,"CLASSIFICATION_TYPE":"U","NORAD_CAT_ID":53991,"ELEMENT_SET_NO":999,"REV_AT_EPOCH":16715,"BSTAR":3.7875247e-5,"MEAN_MOTION_DOT":3.15e-6,"MEAN_MOTION_DDOT":0},{"OBJECT_NAME":"STARLINK-5108","OBJECT_ID":"2022-125AE","EPOCH":"2025-10-11T22:07:02.048736","MEAN_MOTION":15.08835375,"ECCENTRICITY":0.00014388,"INCLINATION":53.2167,"RA_OF_ASC_NODE":161.9652,"ARG_OF_PERICENTER":85.6028,"MEAN_ANOMALY":274.5128,"EPHEMERIS_TYPE":0,"CLASSIFICATION_TYPE":"U","NORAD_CAT_ID":53992,"ELEMENT_SET_NO":999,"REV_AT_EPOCH":16699,"BSTAR":7.1158293e-5,"MEAN_MOTION_DOT":8.45e-6,"MEAN_MOTION_DDOT":0},{"OBJECT_NAME":"STARLINK-5121","OBJECT_ID":"2022-125AF","EPOCH":"2025-10-12T00:43:58.600704","MEAN_MOTION":15.08848557,"ECCENTRICITY":9.202e-5,"INCLINATION":53.2131,"RA_OF_ASC_NODE":156.231,"ARG_OF_PERICENTER":79.461,"MEAN_ANOMALY":280.6486,"EPHEMERIS_TYPE":0,"CLASSIFICATION_TYPE":"U","NORAD_CAT_ID":53993,"ELEMENT_SET_NO":999,"REV_AT_EPOCH":16708,"BSTAR":0.00013553956,"MEAN_MOTION_DOT":1.871e-5,"MEAN_MOTION_DDOT":0},{"OBJECT_NAME":"STARLINK-5125","OBJECT_ID":"2022-125AG","EPOCH":"2025-10-12T01:01:53.009760","MEAN_MOTION":15.08840865,"ECCENTRICITY":0.00013342,"INCLINATION":53.2164,"RA_OF_ASC_NODE":161.3017,"ARG_OF_PERICENTER":85.5776,"MEAN_ANOMALY":274.5369,"EPHEMERIS_TYPE":0,"CLASSIFICATION_TYPE":"U","NORAD_CAT_ID":53994,"ELEMENT_SET_NO":999,"REV_AT_EPOCH":16702,"BSTAR":4.9521776e-5,"MEAN_MOTION_DOT":5.0e-6,"MEAN_MOTION_DDOT":0},{"OBJECT_NAME":"STARLINK-5097","OBJECT_ID":"2022-125AH","EPOCH":"2025-10-11T22:01:43.606848","MEAN_MOTION":15.08839566,"ECCENTRICITY":0.00016488,"INCLINATION":53.2167,"RA_OF_ASC_NODE":161.9458,"ARG_OF_PERICENTER":94.7231,"MEAN_ANOMALY":265.3949,"EPHEMERIS_TYPE":0,"CLASSIFICATION_TYPE":"U","NORAD_CAT_ID":53995,"ELEMENT_SET_NO":999,"REV_AT_EPOCH":16699,"BSTAR":6.0210563e-5,"MEAN_MOTION_DOT":6.7e-6,"MEAN_MOTION_DDOT":0},{"OBJECT_NAME":"STARLINK-5131","OBJECT_ID":"2022-125AJ","EPOCH":"2025-10-12T00:56:35.558880","MEAN_MOTION":15.08827495,"ECCENTRICITY":0.0001065,"INCLINATION":53.2157,"RA_OF_ASC_NODE":161.2773,"ARG_OF_PERICENTER":116.9268,"MEAN_ANOMALY":243.1833,"EPHEMERIS_TYPE":0,"CLASSIFICATION_TYPE":"U","NORAD_CAT_ID":53996,"ELEMENT_SET_NO":999,"REV_AT_EPOCH":16702,"BSTAR":7.4793204e-5,"MEAN_MOTION_DOT":9.02e-6,"MEAN_MOTION_DDOT":0},{"OBJECT_NAME":"STARLINK-5130","OBJECT_ID":"2022-125AK","EPOCH":"2025-10-12T00:10:16.595328","MEAN_MOTION":15.08842237,"ECCENTRICITY":0.00014388,"INCLINATION":53.2194,"RA_OF_ASC_NODE":151.8114,"ARG_OF_PERICENTER":95.1121,"MEAN_ANOMALY":265.0036,"EPHEMERIS_TYPE":0,"CLASSIFICATION_TYPE":"U","NORAD_CAT_ID":53997,"ELEMENT_SET_NO":999,"REV_AT_EPOCH":16715,"BSTAR":0.00012207969,"MEAN_MOTION_DOT":1.656e-5,"MEAN_MOTION_DDOT":0},{"OBJECT_NAME":"STARLINK-5128","OBJECT_ID":"2022-125AL","EPOCH":"2025-10-12T02:21:21.512160","MEAN_MOTION":15.08842656,"ECCENTRICITY":0.00017406,"INCLINATION":53.2159,"RA_OF_ASC_NODE":160.9345,"ARG_OF_PERICENTER":90.6512,"MEAN_ANOMALY":269.4679,"EPHEMERIS_TYPE":0,"CLASSIFICATION_TYPE":"U","NORAD_CAT_ID":53998,"ELEMENT_SET_NO":999,"REV_AT_EPOCH":16703,"BSTAR":-9.6559013e-5,"MEAN_MOTION_DOT":-1.825e-5,"MEAN_MOTION_DDOT":0},{"OBJECT_NAME":"STARLINK-5079","OBJECT_ID":"2022-125AM","EPOCH":"2025-10-11T15:34:52.421376","MEAN_MOTION":15.08838064,"ECCENTRICITY":0.00013489,"INCLINATION":53.2138,"RA_OF_ASC_NODE":163.1085,"ARG_OF_PERICENTER":89.9871,"MEAN_ANOMALY":270.1276,"EPHEMERIS_TYPE":0,"CLASSIFICATION_TYPE":"U","NORAD_CAT_ID":53999,"ELEMENT_SET_NO":999,"REV_AT_EPOCH":16696,"BSTAR":7.4777956e-5,"MEAN_MOTION_DOT":9.02e-6,"MEAN_MOTION_DDOT":0},{"OBJECT_NAME":"STARLINK-5088","OBJECT_ID":"2022-125AN","EPOCH":"2025-10-12T01:40:21.103680","MEAN_MOTION":15.08853504,"ECCENTRICITY":0.00015839,"INCLINATION":53.2157,"RA_OF_ASC_NODE":151.4872,"ARG_OF_PERICENTER":78.9039,"MEAN_ANOMALY":281.2132,"EPHEMERIS_TYPE":0,"CLASSIFICATION_TYPE":"U","NORAD_CAT_ID":54000,"ELEMENT_SET_NO":999,"REV_AT_EPOCH":16716,"BSTAR":0.00011084892,"MEAN_MOTION_DOT":1.477e-5,"MEAN_MOTION_DDOT":0},{"OBJECT_NAME":"STARLINK-5109","OBJECT_ID":"2022-125AQ","EPOCH":"2025-10-12T00:36:41.065056","MEAN_MOTION":15.08845767,"ECCENTRICITY":0.00015107,"INCLINATION":53.217,"RA_OF_ASC_NODE":151.2385,"ARG_OF_PERICENTER":85.5884,"MEAN_ANOMALY":274.5281,"EPHEMERIS_TYPE":0,"CLASSIFICATION_TYPE":"U","NORAD_CAT_ID":54002,"ELEMENT_SET_NO":999,"REV_AT_EPOCH":16716,"BSTAR":8.0717285e-5,"MEAN_MOTION_DOT":9.97e-6,"MEAN_MOTION_DDOT":0}]
