53983,STARLINK-5103,2022,95.44,260.0,+,53.22,Active,1,LEO,USA,USA,Commercial,Communications,Falcon,1 53983U 22125V   25285.03652858 -.00000467  00000+0 -11252-4 0  9992,2 53983  53.2144 151.2887 0001336  81.8636 278.2508 15.08840367167161,15.08840367,0.0001336,LEO
53984,STARLINK-5142,2022,95.44,260.0,+,53.22,Active,1,LEO,USA,USA,Commercial,Communications,Falcon,1 53984U 22125W   25284.93628630  .00000902  00000+0  74781-4 0  9990,2 53984  53.2148 162.0555 0001696  90.1653 269.9533 15.08842711167002,15.08842711,0.0001696,LEO
53985,STARLINK-5147,2022,95.44,260.0,+,53.22,Active,1,LEO,USA,USA,Commercial,Communications,Falcon,1 53985U 22125X   25285.07613323  .00000344  00000+0  39683-4 0  9992,2 53985  53.2159 161.5054 0001185  88.2529 271.8598 15.08844991167023,15.08844991,0.0001185,LEO
53986,STARLINK-5119,2022,95.44,260.0,+,53.22,Active,1,LEO,USA,USA,Commercial,Communications,Falcon,1 53986U 22125Y   25285.02178817  .00000399  00000+0  43141-4 0  9996,2 53986  53.2165 151.1990 0001420  86.1688 273.9466 15.08841937167158,15.08841937,0.000142,LEO
53988,STARLINK-5113,2022,95.44,260.0,+,53.22,Active,1,LEO,USA,USA,Commercial,Communications,Falcon,1 53988U 22125AA  25284.66764371  .00000084  00000+0  23359-4 0  9993,2 53988  53.2171 163.2229 0001364  89.5083 270.6065 15.08839114166959,15.08839114,0.0001364,LEO
53991,STARLINK-5118,2022,95.44,260.0,+,53.22,Active,1,LEO,USA,USA,Commercial,Communications,Falcon,1 53991U 22125AD  25285.05126128  .00000315  00000+0  37875-4 0  9998,2 53991  53.2160 151.3154 0001580  88.1175 271.9999 15.08836269167154,15.08836269,0.000158,LEO
53992,STARLINK-5108,2022,95.44,260.0,+,53.22,Active,1,LEO,USA,USA,Commercial,Communications,Falcon,1 53992U 22125AE  25284.92155149  .00000845  00000+0  71158-4 0  9999,2 53992  53.2167 161.9652 0001438  85.6028 274.5128 15.08835375166994,15.08835375,0.0001438,LEO
53993,STARLINK-5121,2022,95.44,260.0,+,53.22,Active,1,LEO,USA,USA,Commercial,Communications,Falcon,1 53993U 22125AF  25285.03053936  .00001871  00000+0  13554-3 0  9999,2 53993  53.2131 156.2310 0000920  79.4610 280.6486 15.08848557167089,15.08848557,9.2e-05,LEO
53994,STARLINK-5125,2022,95.44,260.0,+,53.21,Active,1,LEO,USA,USA,Commercial,Communications,Falcon,1 53994U 22125AG  25285.04297465  .00000500  00000+0  49522-4 0  9991,2 53994  53.2164 161.3017 0001334  85.5776 274.5369 15.08840865167028,15.08840865,0.0001334,LEO
53995,STARLINK-5097,2022,95.44,260.0,+,53.22,Active,1,LEO,USA,USA,Commercial,Communications,Falcon,1 53995U 22125AH  25284.91786582  .00000670  00000+0  60211-4 0  9996,2 53995  53.2167 161.9458 0001648  94.7231 265.3949 15.08839566166996,15.08839566,0.0001648,LEO
53996,STARLINK-5131,2022,95.44,260.0,+,53.22,Active,1,LEO,USA,USA,Commercial,Communications,Falcon,1 53996U 22125AJ  25285.03930045  .00000902  00000+0  74793-4 0  9994,2 53996  53.2157 161.2773 0001065 116.9268 243.1833 15.08827495167028,15.08827495,0.0001065,LEO
53997,STARLINK-5130,2022,95.44,260.0,+,53.22,Active,1,LEO,USA,USA,Commercial,Communications,Falcon,1 53997U 22125AK  25285.00713652  .00001656  00000+0  12208-3 0  9994,2 53997  53.2194 151.8114 0001438  95.1121 265.0036 15.08842237167157,15.08842237,0.0001438,LEO
53998,STARLINK-5128,2022,95.44,260.0,+,53.21,Active,1,LEO,USA,USA,Commercial,Communications,Falcon,1 53998U 22125AL  25285.09816565 -.00001825  00000+0 -96559-4 0  9993,2 53998  53.2159 160.9345 0001740  90.6512 269.4679 15.08842656167039,15.08842656,0.000174,LEO
53999,STARLINK-5079,2022,95.44,260.0,+,53.22,Active,1,LEO,USA,USA,Commercial,Communications,Falcon,1 53999U 22125AM  25284.64921784  .00000902  00000+0  74778-4 0  9996,2 53999  53.2138 163.1085 0001348  89.9871 270.1276 15.08838064166967,15.08838064,0.0001348,LEO
54000,STARLINK-5088,2022,95.44,260.0,+,53.22,Active,1,LEO,USA,USA,Commercial,Communications,Falcon,1 54000U 22125AN  25285.06968870  .00001477  00000+0  11085-3 0  9993,2 54000  53.2157 151.4872 0001583  78.9039 281.2132 15.08853504167164,15.08853504,0.0001583,LEO
54002,STARLINK-5109,2022,95.44,260.0,+,53.22,Active,1,LEO,USA,USA,Commercial,Communications,Falcon,1 54002U 22125AQ  25285.02547529  .00000997  00000+0  80717-4 0  9990,2 54002  53.2170 151.2385 0001510  85.5884 274.5281 15.08845767167162,15.08845767,0.000151,LEO
